[{"OBJECT_NAME":"STARLINK-1560","OBJECT_ID":"2020-055K","EPOCH":"2026-03-10T00:00:02.999808","MEAN_MOTION":15.20380122,"ECCENTRICITY":0.00016209,"INCLINATION":53.1145,"RA_OF_ASC_NODE":124.8762,"ARG_OF_PERICENTER":110.2667,"MEAN_ANOMALY":94.4846,"EPHEMERIS_TYPE":0,"CLASSIFICATION_TYPE":"U","NORAD_CAT_ID":46036,"ELEMENT_SET_NO":999,"REV_AT_EPOCH":575,"BSTAR":0.060862486,"MEAN_MOTION_DOT":0.01468388,"MEAN_MOTION_DDOT":0},{"OBJECT_NAME":"OBJECT V","OBJECT_ID":"2023-091V","EPOCH":"2026-03-09T23:35:36.322656","MEAN_MOTION":15.35373298,"ECCENTRICITY":0.00083972,"INCLINATION":97.5164,"RA_OF_ASC_NODE":137.4699,"ARG_OF_PERICENTER":75.9792,"MEAN_ANOMALY":284.2385,"EPHEMERIS_TYPE":0,"CLASSIFICATION_TYPE":"U","NORAD_CAT_ID":57185,"ELEMENT_SET_NO":999,"REV_AT_EPOCH":14953,"BSTAR":0.0007712531,"MEAN_MOTION_DOT":0.00026506,"MEAN_MOTION_DDOT":0}]
